CCSDS_OMM_VERS = 2.0
CREATION_DATE  = 
ORIGINATOR     = 

OBJECT_NAME    = STARLINK-36362
OBJECT_ID      = 2026-005W
CENTER_NAME    = EARTH
REF_FRAME      = TEME
TIME_SYSTEM    = UTC
MEAN_ELEMENT_THEORY = SGP/SGP4

EPOCH          = 2026-02-06T14:00:01.999872
MEAN_MOTION    = 15.40651802
ECCENTRICITY   = .00008652
INCLINATION    = 43.0001
RA_OF_ASC_NODE = 56.2495
ARG_OF_PERICENTER = 291.9402
MEAN_ANOMALY   = 269.3636

EPHEMERIS_TYPE = 0
CLASSIFICATION_TYPE = U
NORAD_CAT_ID   = 67424
ELEMENT_SET_NO = 999
REV_AT_EPOCH   = 518
BSTAR          = .18162164E-2
MEAN_MOTION_DOT = .76203E-3
MEAN_MOTION_DDOT = 0

CCSDS_OMM_VERS = 2.0
CREATION_DATE  = 
ORIGINATOR     = 

OBJECT_NAME    = STARLINK-36447
OBJECT_ID      = 2026-005X
CENTER_NAME    = EARTH
REF_FRAME      = TEME
TIME_SYSTEM    = UTC
MEAN_ELEMENT_THEORY = SGP/SGP4

EPOCH          = 2026-02-06T14:00:01.999872
MEAN_MOTION    = 15.41143369
ECCENTRICITY   = .00012701
INCLINATION    = 42.9999
RA_OF_ASC_NODE = 56.1891
ARG_OF_PERICENTER = 308.0570
MEAN_ANOMALY   = 277.9448

EPHEMERIS_TYPE = 0
CLASSIFICATION_TYPE = U
NORAD_CAT_ID   = 67425
ELEMENT_SET_NO = 999
REV_AT_EPOCH   = 518
BSTAR          = -.18110774E-1
MEAN_MOTION_DOT = -.71026E-2
MEAN_MOTION_DDOT = 0

CCSDS_OMM_VERS = 2.0
CREATION_DATE  = 
ORIGINATOR     = 

OBJECT_NAME    = STARLINK-36146
OBJECT_ID      = 2026-005Y
CENTER_NAME    = EARTH
REF_FRAME      = TEME
TIME_SYSTEM    = UTC
MEAN_ELEMENT_THEORY = SGP/SGP4

EPOCH          = 2026-02-06T09:47:40.793856
MEAN_MOTION    = 15.50564728
ECCENTRICITY   = .00014203
INCLINATION    = 43.0002
RA_OF_ASC_NODE = 57.1307
ARG_OF_PERICENTER = 263.9674
MEAN_ANOMALY   = 96.1024

EPHEMERIS_TYPE = 0
CLASSIFICATION_TYPE = U
NORAD_CAT_ID   = 67426
ELEMENT_SET_NO = 999
REV_AT_EPOCH   = 387
BSTAR          = .11673151E-2
MEAN_MOTION_DOT = .68707E-3
MEAN_MOTION_DDOT = 0

CCSDS_OMM_VERS = 2.0
CREATION_DATE  = 
ORIGINATOR     = 

OBJECT_NAME    = STARLINK-36459
OBJECT_ID      = 2026-005Z
CENTER_NAME    = EARTH
REF_FRAME      = TEME
TIME_SYSTEM    = UTC
MEAN_ELEMENT_THEORY = SGP/SGP4

EPOCH          = 2026-02-06T12:52:42.056832
MEAN_MOTION    = 15.50585661
ECCENTRICITY   = .00014675
INCLINATION    = 42.9996
RA_OF_ASC_NODE = 56.3750
ARG_OF_PERICENTER = 262.2726
MEAN_ANOMALY   = 97.7967

EPHEMERIS_TYPE = 0
CLASSIFICATION_TYPE = U
NORAD_CAT_ID   = 67427
ELEMENT_SET_NO = 999
REV_AT_EPOCH   = 389
BSTAR          = .1393149E-2
MEAN_MOTION_DOT = .82271E-3
MEAN_MOTION_DDOT = 0

CCSDS_OMM_VERS = 2.0
CREATION_DATE  = 
ORIGINATOR     = 

OBJECT_NAME    = STARLINK-36464
OBJECT_ID      = 2026-005AA
CENTER_NAME    = EARTH
REF_FRAME      = TEME
TIME_SYSTEM    = UTC
MEAN_ELEMENT_THEORY = SGP/SGP4

EPOCH          = 2026-02-06T12:51:42.728544
MEAN_MOTION    = 15.50586678
ECCENTRICITY   = .00015546
INCLINATION    = 42.9997
RA_OF_ASC_NODE = 56.3697
ARG_OF_PERICENTER = 257.3807
MEAN_ANOMALY   = 102.6879

EPHEMERIS_TYPE = 0
CLASSIFICATION_TYPE = U
NORAD_CAT_ID   = 67428
ELEMENT_SET_NO = 999
REV_AT_EPOCH   = 389
BSTAR          = .14866052E-2
MEAN_MOTION_DOT = .8788E-3
MEAN_MOTION_DDOT = 0

CCSDS_OMM_VERS = 2.0
CREATION_DATE  = 
ORIGINATOR     = 

OBJECT_NAME    = STARLINK-36513
OBJECT_ID      = 2026-005AB
CENTER_NAME    = EARTH
REF_FRAME      = TEME
TIME_SYSTEM    = UTC
MEAN_ELEMENT_THEORY = SGP/SGP4

EPOCH          = 2026-02-06T12:51:13.259232
MEAN_MOTION    = 15.50586663
ECCENTRICITY   = .00009385
INCLINATION    = 42.9998
RA_OF_ASC_NODE = 56.3660
ARG_OF_PERICENTER = 261.5684
MEAN_ANOMALY   = 98.5070

EPHEMERIS_TYPE = 0
CLASSIFICATION_TYPE = U
NORAD_CAT_ID   = 67429
ELEMENT_SET_NO = 999
REV_AT_EPOCH   = 389
BSTAR          = .15557755E-2
MEAN_MOTION_DOT = .92032E-3
MEAN_MOTION_DDOT = 0

CCSDS_OMM_VERS = 2.0
CREATION_DATE  = 
ORIGINATOR     = 

OBJECT_NAME    = STARLINK-36515
OBJECT_ID      = 2026-005AC
CENTER_NAME    = EARTH
REF_FRAME      = TEME
TIME_SYSTEM    = UTC
MEAN_ELEMENT_THEORY = SGP/SGP4

EPOCH          = 2026-02-06T12:52:12.466560
MEAN_MOTION    = 15.50582714
ECCENTRICITY   = .00015097
INCLINATION    = 42.9998
RA_OF_ASC_NODE = 56.3722
ARG_OF_PERICENTER = 262.0623
MEAN_ANOMALY   = 98.0066

EPHEMERIS_TYPE = 0
CLASSIFICATION_TYPE = U
NORAD_CAT_ID   = 67430
ELEMENT_SET_NO = 999
REV_AT_EPOCH   = 389
BSTAR          = .14614065E-2
MEAN_MOTION_DOT = .86355E-3
MEAN_MOTION_DDOT = 0

CCSDS_OMM_VERS = 2.0
CREATION_DATE  = 
ORIGINATOR     = 

OBJECT_NAME    = STARLINK-36443
OBJECT_ID      = 2026-005AD
CENTER_NAME    = EARTH
REF_FRAME      = TEME
TIME_SYSTEM    = UTC
MEAN_ELEMENT_THEORY = SGP/SGP4

EPOCH          = 2026-02-06T11:17:58.006464
MEAN_MOTION    = 15.50589941
ECCENTRICITY   = .00014056
INCLINATION    = 43.0004
RA_OF_ASC_NODE = 56.7384
ARG_OF_PERICENTER = 276.4311
MEAN_ANOMALY   = 83.6389

EPHEMERIS_TYPE = 0
CLASSIFICATION_TYPE = U
NORAD_CAT_ID   = 67431
ELEMENT_SET_NO = 999
REV_AT_EPOCH   = 389
BSTAR          = .16010569E-2
MEAN_MOTION_DOT = .94766E-3
MEAN_MOTION_DDOT = 0

CCSDS_OMM_VERS = 2.0
CREATION_DATE  = 
ORIGINATOR     = 

OBJECT_NAME    = STARLINK-36460
OBJECT_ID      = 2026-005AE
CENTER_NAME    = EARTH
REF_FRAME      = TEME
TIME_SYSTEM    = UTC
MEAN_ELEMENT_THEORY = SGP/SGP4

EPOCH          = 2026-02-06T12:50:13.847136
MEAN_MOTION    = 15.50585473
ECCENTRICITY   = .00015305
INCLINATION    = 42.9999
RA_OF_ASC_NODE = 56.3601
ARG_OF_PERICENTER = 254.2963
MEAN_ANOMALY   = 105.7728

EPHEMERIS_TYPE = 0
CLASSIFICATION_TYPE = U
NORAD_CAT_ID   = 67432
ELEMENT_SET_NO = 999
REV_AT_EPOCH   = 389
BSTAR          = .14219019E-2
MEAN_MOTION_DOT = .83994E-3
MEAN_MOTION_DDOT = 0

CCSDS_OMM_VERS = 2.0
CREATION_DATE  = 
ORIGINATOR     = 

OBJECT_NAME    = YAOGAN-50 01
OBJECT_ID      = 2026-006A
CENTER_NAME    = EARTH
REF_FRAME      = TEME
TIME_SYSTEM    = UTC
MEAN_ELEMENT_THEORY = SGP/SGP4

EPOCH          = 2026-02-06T13:55:34.389696
MEAN_MOTION    = 13.83241433
ECCENTRICITY   = .00007327
INCLINATION    = 142.0319
RA_OF_ASC_NODE = 304.6109
ARG_OF_PERICENTER = 264.3893
MEAN_ANOMALY   = 95.6743

EPHEMERIS_TYPE = 0
CLASSIFICATION_TYPE = U
NORAD_CAT_ID   = 67433
ELEMENT_SET_NO = 999
REV_AT_EPOCH   = 334
BSTAR          = .17514341E-3
MEAN_MOTION_DOT = .382E-5
MEAN_MOTION_DDOT = 0

CCSDS_OMM_VERS = 2.0
CREATION_DATE  = 
ORIGINATOR     = 

OBJECT_NAME    = CZ-6A R/B
OBJECT_ID      = 2026-006B
CENTER_NAME    = EARTH
REF_FRAME      = TEME
TIME_SYSTEM    = UTC
MEAN_ELEMENT_THEORY = SGP/SGP4

EPOCH          = 2026-02-06T06:38:48.371136
MEAN_MOTION    = 14.62307036
ECCENTRICITY   = .0203581
INCLINATION    = 142.0436
RA_OF_ASC_NODE = 317.8823
ARG_OF_PERICENTER = 255.4720
MEAN_ANOMALY   = 102.3356

EPHEMERIS_TYPE = 0
CLASSIFICATION_TYPE = U
NORAD_CAT_ID   = 67434
ELEMENT_SET_NO = 999
REV_AT_EPOCH   = 347
BSTAR          = .24367E-3
MEAN_MOTION_DOT = .2009E-4
MEAN_MOTION_DDOT = 0

CCSDS_OMM_VERS = 2.0
CREATION_DATE  = 
ORIGINATOR     = 

OBJECT_NAME    = HULIANWANG DIGUI-137
OBJECT_ID      = 2026-007A
CENTER_NAME    = EARTH
REF_FRAME      = TEME
TIME_SYSTEM    = UTC
MEAN_ELEMENT_THEORY = SGP/SGP4

EPOCH          = 2026-02-05T21:08:07.471392
MEAN_MOTION    = 13.76593365
ECCENTRICITY   = .0000579
INCLINATION    = 50.0142
RA_OF_ASC_NODE = 202.3826
ARG_OF_PERICENTER = 45.0466
MEAN_ANOMALY   = 315.0474

EPHEMERIS_TYPE = 0
CLASSIFICATION_TYPE = U
NORAD_CAT_ID   = 67435
ELEMENT_SET_NO = 999
REV_AT_EPOCH   = 323
BSTAR          = .15997E-3
MEAN_MOTION_DOT = .17E-6
MEAN_MOTION_DDOT = 0

CCSDS_OMM_VERS = 2.0
CREATION_DATE  = 
ORIGINATOR     = 

OBJECT_NAME    = HULIANWANG DIGUI-138
OBJECT_ID      = 2026-007B
CENTER_NAME    = EARTH
REF_FRAME      = TEME
TIME_SYSTEM    = UTC
MEAN_ELEMENT_THEORY = SGP/SGP4

EPOCH          = 2026-02-05T21:15:56.611296
MEAN_MOTION    = 13.76232388
ECCENTRICITY   = .0000983
INCLINATION    = 50.0095
RA_OF_ASC_NODE = 202.4131
ARG_OF_PERICENTER = 37.3200
MEAN_ANOMALY   = 322.7760

EPHEMERIS_TYPE = 0
CLASSIFICATION_TYPE = U
NORAD_CAT_ID   = 67436
ELEMENT_SET_NO = 999
REV_AT_EPOCH   = 323
BSTAR          = .15663E-3
MEAN_MOTION_DOT = .12E-6
MEAN_MOTION_DDOT = 0

CCSDS_OMM_VERS = 2.0
CREATION_DATE  = 
ORIGINATOR     = 

OBJECT_NAME    = HULIANWANG DIGUI-139
OBJECT_ID      = 2026-007C
CENTER_NAME    = EARTH
REF_FRAME      = TEME
TIME_SYSTEM    = UTC
MEAN_ELEMENT_THEORY = SGP/SGP4

EPOCH          = 2026-02-06T09:23:38.028768
MEAN_MOTION    = 13.76139378
ECCENTRICITY   = .00002569
INCLINATION    = 50.0002
RA_OF_ASC_NODE = 200.4092
ARG_OF_PERICENTER = 48.4286
MEAN_ANOMALY   = 311.6628

EPHEMERIS_TYPE = 0
CLASSIFICATION_TYPE = U
NORAD_CAT_ID   = 67437
ELEMENT_SET_NO = 999
REV_AT_EPOCH   = 330
BSTAR          = .19328375E-3
MEAN_MOTION_DOT = .48E-6
MEAN_MOTION_DDOT = 0

CCSDS_OMM_VERS = 2.0
CREATION_DATE  = 
ORIGINATOR     = 

OBJECT_NAME    = HULIANWANG DIGUI-140
OBJECT_ID      = 2026-007D
CENTER_NAME    = EARTH
REF_FRAME      = TEME
TIME_SYSTEM    = UTC
MEAN_ELEMENT_THEORY = SGP/SGP4

EPOCH          = 2026-02-05T17:51:13.807584
MEAN_MOTION    = 13.76236204
ECCENTRICITY   = .0002852
INCLINATION    = 49.9963
RA_OF_ASC_NODE = 202.9792
ARG_OF_PERICENTER = 211.2197
MEAN_ANOMALY   = 148.8526

EPHEMERIS_TYPE = 0
CLASSIFICATION_TYPE = U
NORAD_CAT_ID   = 67438
ELEMENT_SET_NO = 999
REV_AT_EPOCH   = 321
BSTAR          = .18195E-3
MEAN_MOTION_DOT = .37E-6
MEAN_MOTION_DDOT = 0

